{
  "type": "FeatureCollection",
  "features": [
    {
      "type": "Feature",
      "properties": {
        "norad_id": 34434,
        "name": "COSMOS 2251 DEB",
        "group": "cosmos-2251-debris",
        "lat": -52.45394519451847,
        "lon": -141.24699121176062,
        "alt_km": 896.8281574064576,
        "timestamp": "2025-12-08T17:43:05.332143+00:00",
        "meta_object_name": "COSMOS 2251 DEB",
        "meta_object_id": "1993-036SB",
        "meta_epoch": "2025-12-08T04:57:08.517312",
        "meta_mean_motion": 13.89762593,
        "meta_eccentricity": 0.02754375,
        "meta_inclination": 74.0629,
        "meta_ra_of_asc_node": 17.8332,
        "meta_arg_of_pericenter": 156.1873,
        "meta_mean_anomaly": 296.0035,
        "meta_ephemeris_type": 0,
        "meta_classification_type": "U",
        "meta_norad_cat_id": 34434,
        "meta_element_set_no": 999,
        "meta_rev_at_epoch": 83903,
        "meta_bstar": 0.0028782953,
        "meta_mean_motion_dot": 4.776e-05,
        "meta_mean_motion_ddot": 0,
        "tle_line1": "1 34434U 93036SB  25342.20634858  .00004776  00000+0  28783-2 0  9994",
        "tle_line2": "2 34434  74.0629  17.8332 0275437 156.1873 296.0035 13.89762593839032"
      },
      "geometry": {
        "type": "Point",
        "coordinates": [
          -141.24699121176062,
          -52.45394519451847
        ]
      }
    },
    {
      "type": "Feature",
      "properties": {
        "norad_id": 34446,
        "name": "COSMOS 2251 DEB",
        "group": "cosmos-2251-debris",
        "lat": -70.03414699431094,
        "lon": 12.822796069990778,
        "alt_km": 727.2225301742292,
        "timestamp": "2025-12-08T17:43:05.332154+00:00",
        "meta_object_name": "COSMOS 2251 DEB",
        "meta_object_id": "1993-036SP",
        "meta_epoch": "2025-12-08T06:28:55.833024",
        "meta_mean_motion": 14.49345368,
        "meta_eccentricity": 0.00513644,
        "meta_inclination": 74.0422,
        "meta_ra_of_asc_node": 65.6632,
        "meta_arg_of_pericenter": 204.7187,
        "meta_mean_anomaly": 155.1512,
        "meta_ephemeris_type": 0,
        "meta_classification_type": "U",
        "meta_norad_cat_id": 34446,
        "meta_element_set_no": 999,
        "meta_rev_at_epoch": 88629,
        "meta_bstar": 0.0003012998,
        "meta_mean_motion_dot": 1.142e-05,
        "meta_mean_motion_ddot": 0,
        "tle_line1": "1 34446U 93036SP  25342.27009066  .00001142  00000+0  30130-3 0  9995",
        "tle_line2": "2 34446  74.0422  65.6632 0051364 204.7187 155.1512 14.49345368886298"
      },
      "geometry": {
        "type": "Point",
        "coordinates": [
          12.822796069990778,
          -70.03414699431094
        ]
      }
    },
    {
      "type": "Feature",
      "properties": {
        "norad_id": 34449,
        "name": "COSMOS 2251 DEB",
        "group": "cosmos-2251-debris",
        "lat": 41.57712051373668,
        "lon": -116.08862586578283,
        "alt_km": 564.1513148339327,
        "timestamp": "2025-12-08T17:43:05.332165+00:00",
        "meta_object_name": "COSMOS 2251 DEB",
        "meta_object_id": "1993-036SS",
        "meta_epoch": "2025-12-08T07:43:12.457344",
        "meta_mean_motion": 14.94460835,
        "meta_eccentricity": 0.00237209,
        "meta_inclination": 74.0326,
        "meta_ra_of_asc_node": 79.4653,
        "meta_arg_of_pericenter": 124.7282,
        "meta_mean_anomaly": 291.1588,
        "meta_ephemeris_type": 0,
        "meta_classification_type": "U",
        "meta_norad_cat_id": 34449,
        "meta_element_set_no": 999,
        "meta_rev_at_epoch": 88627,
        "meta_bstar": 0.0035534587,
        "meta_mean_motion_dot": 0.00038724,
        "meta_mean_motion_ddot": 0,
        "tle_line1": "1 34449U 93036SS  25342.32167196  .00038724  00000+0  35535-2 0  9992",
        "tle_line2": "2 34449  74.0326  79.4653 0023720 124.7282 291.1588 14.94460835886271"
      },
      "geometry": {
        "type": "Point",
        "coordinates": [
          -116.08862586578283,
          41.57712051373668
        ]
      }
    },
    {
      "type": "Feature",
      "properties": {
        "norad_id": 34451,
        "name": "COSMOS 2251 DEB",
        "group": "cosmos-2251-debris",
        "lat": 72.51547950862646,
        "lon": -149.30616894606644,
        "alt_km": 558.1955392883019,
        "timestamp": "2025-12-08T17:43:05.332175+00:00",
        "meta_object_name": "COSMOS 2251 DEB",
        "meta_object_id": "1993-036SU",
        "meta_epoch": "2025-12-07T07:33:43.262784",
        "meta_mean_motion": 14.95062608,
        "meta_eccentricity": 0.00250619,
        "meta_inclination": 74.0467,
        "meta_ra_of_asc_node": 98.8077,
        "meta_arg_of_pericenter": 122.0899,
        "meta_mean_anomaly": 238.2724,
        "meta_ephemeris_type": 0,
        "meta_classification_type": "U",
        "meta_norad_cat_id": 34451,
        "meta_element_set_no": 999,
        "meta_rev_at_epoch": 88554,
        "meta_bstar": 0.0046844553,
        "meta_mean_motion_dot": 0.0005198,
        "meta_mean_motion_ddot": 0,
        "tle_line1": "1 34451U 93036SU  25341.31508406  .00051980  00000+0  46845-2 0  9991",
        "tle_line2": "2 34451  74.0467  98.8077 0025061 122.0899 238.2724 14.95062608885540"
      },
      "geometry": {
        "type": "Point",
        "coordinates": [
          -149.30616894606644,
          72.51547950862646
        ]
      }
    },
    {
      "type": "Feature",
      "properties": {
        "norad_id": 34452,
        "name": "COSMOS 2251 DEB",
        "group": "cosmos-2251-debris",
        "lat": -43.323724658296335,
        "lon": 175.43664205729053,
        "alt_km": 505.8123332411251,
        "timestamp": "2025-12-08T17:43:05.332186+00:00",
        "meta_object_name": "COSMOS 2251 DEB",
        "meta_object_id": "1993-036SV",
        "meta_epoch": "2025-12-08T07:18:37.371744",
        "meta_mean_motion": 15.11504343,
        "meta_eccentricity": 0.00668886,
        "meta_inclination": 74.0358,
        "meta_ra_of_asc_node": 191.9971,
        "meta_arg_of_pericenter": 269.2765,
        "meta_mean_anomaly": 206.024,
        "meta_ephemeris_type": 0,
        "meta_classification_type": "U",
        "meta_norad_cat_id": 34452,
        "meta_element_set_no": 999,
        "meta_rev_at_epoch": 90595,
        "meta_bstar": 0.00089108454,
        "meta_mean_motion_dot": 0.00015921,
        "meta_mean_motion_ddot": 0,
        "tle_line1": "1 34452U 93036SV  25342.30459921  .00015921  00000+0  89108-3 0  9994",
        "tle_line2": "2 34452  74.0358 191.9971 0066888 269.2765 206.0240 15.11504343905956"
      },
      "geometry": {
        "type": "Point",
        "coordinates": [
          175.43664205729053,
          -43.323724658296335
        ]
      }
    },
    {
      "type": "Feature",
      "properties": {
        "norad_id": 34453,
        "name": "COSMOS 2251 DEB",
        "group": "cosmos-2251-debris",
        "lat": -43.0008803113449,
        "lon": 92.89793513512745,
        "alt_km": 350.75980308342787,
        "timestamp": "2025-12-08T17:43:05.332197+00:00",
        "meta_object_name": "COSMOS 2251 DEB",
        "meta_object_id": "1993-036SW",
        "meta_epoch": "2025-12-08T02:36:43.907328",
        "meta_mean_motion": 15.68856703,
        "meta_eccentricity": 0.00222627,
        "meta_inclination": 74.1101,
        "meta_ra_of_asc_node": 109.7188,
        "meta_arg_of_pericenter": 343.3514,
        "meta_mean_anomaly": 16.6975,
        "meta_ephemeris_type": 0,
        "meta_classification_type": "U",
        "meta_norad_cat_id": 34453,
        "meta_element_set_no": 999,
        "meta_rev_at_epoch": 88794,
        "meta_bstar": 0.010289882,
        "meta_mean_motion_dot": 0.01337216,
        "meta_mean_motion_ddot": 0,
        "tle_line1": "1 34453U 93036SW  25342.10884152  .01337216  00000+0  10290-1 0  9990",
        "tle_line2": "2 34453  74.1101 109.7188 0022262 343.3514  16.6975 15.68856703887945"
      },
      "geometry": {
        "type": "Point",
        "coordinates": [
          92.89793513512745,
          -43.0008803113449
        ]
      }
    },
    {
      "type": "Feature",
      "properties": {
        "norad_id": 34454,
        "name": "COSMOS 2251 DEB",
        "group": "cosmos-2251-debris",
        "lat": -42.50583446378543,
        "lon": -90.17998727898635,
        "alt_km": 747.4655088181553,
        "timestamp": "2025-12-08T17:43:05.332207+00:00",
        "meta_object_name": "COSMOS 2251 DEB",
        "meta_object_id": "1993-036SX",
        "meta_epoch": "2025-12-08T06:14:33.814176",
        "meta_mean_motion": 14.38797438,
        "meta_eccentricity": 0.00354226,
        "meta_inclination": 74.0585,
        "meta_ra_of_asc_node": 285.8869,
        "meta_arg_of_pericenter": 349.3268,
        "meta_mean_anomaly": 10.713,
        "meta_ephemeris_type": 0,
        "meta_classification_type": "U",
        "meta_norad_cat_id": 34454,
        "meta_element_set_no": 999,
        "meta_rev_at_epoch": 88003,
        "meta_bstar": 0.00052716341,
        "meta_mean_motion_dot": 1.606e-05,
        "meta_mean_motion_ddot": 0,
        "tle_line1": "1 34454U 93036SX  25342.26011359  .00001606  00000+0  52716-3 0  9990",
        "tle_line2": "2 34454  74.0585 285.8869 0035422 349.3268  10.7130 14.38797438880033"
      },
      "geometry": {
        "type": "Point",
        "coordinates": [
          -90.17998727898635,
          -42.50583446378543
        ]
      }
    }
  ]
}